EYESAT-1 (AO-27)        
1 22825U 93061C   18025.90494738  .00000007  00000-0  20488-4 0  9991
2 22825  98.8445 359.5832 0009196  46.6064 313.5882 14.30020142269234
CUTE-1 (CO-55)          
1 27844U 03031E   18025.55356131  .00000057  00000-0  45380-4 0  9993
2 27844  98.6887  36.3026 0010734  67.1615 293.0695 14.22090617755928
CUBESAT XI-IV (CO-57)   
1 27848U 03031J   18025.47333687  .00000039  00000-0  37567-4 0  9997
2 27848  98.6976  36.5716 0010709  76.4148 283.8222 14.21697772755753
CUBESAT XI 5            
1 28895U 05043F   18025.38493299  .00000140  00000-0  35592-4 0  9990
2 28895  97.8872 182.8008 0017412 157.0641 203.1343 14.63501554652756
CUTE-1.7+APD II (CO-65) 
1 32785U 08021C   18025.83128783  .00000202  00000-0  27527-4 0  9993
2 32785  97.5535  44.7646 0013972 145.2840 214.9292 14.88051167528003
COMPASS-1               
1 32787U 08021E   18025.56278465  .00000585  00000-0  61527-4 0  9990
2 32787  97.5397  54.6926 0013943 113.5943 246.6742 14.92894286528624
AAUSAT-II               
1 32788U 08021F   18025.58957570  .00000229  00000-0  26415-4 0  9996
2 32788  97.5368  57.9347 0013402 105.1003 255.1702 14.94199902528783
DELFI-C3 (DO-64)        
1 32789U 08021G   18025.71435841  .00001387  00000-0  99954-4 0  9998
2 32789  97.5317  84.0212 0013713  67.5552 292.7126 15.05698029530344
CANX-2                  
1 32790U 08021H   18025.51682273  .00000177  00000-0  24976-4 0  9999
2 32790  97.5531  42.7075 0014554 148.3321 211.8774 14.87761151527891
SEEDS II (CO-66)        
1 32791U 08021J   18025.54645669  .00000392  00000-0  45540-4 0  9990
2 32791  97.5462  49.5057 0014602 129.8138 230.4368 14.90452388528265
SWISSCUBE               
1 35932U 09051B   18025.37192106  .00000113  00000-0  36651-4 0  9992
2 35932  98.5230 173.2804 0006579 290.7870  69.2622 14.56113954442653
BEESAT                  
1 35933U 09051C   18025.89054596  .00000102  00000-0  34044-4 0  9992
2 35933  98.5269 175.2654 0004847 306.0821  53.9927 14.56222868442837
ITUPSAT 1               
1 35935U 09051E   18025.38392263  .00000079  00000-0  29180-4 0  9992
2 35935  98.5381 175.0020 0007131 299.7161  60.3326 14.55405244442524
TISAT 1                 
1 36799U 10035E   18025.34828311  .00000268  00000-0  33434-4 0  9996
2 36799  98.0853 157.9848 0011400 322.1745  37.8670 14.90676166408875
M-CUBED & EXP-1 PRIME   
1 37855U 11061F   18025.53128146  .00000801  00000-0  49192-4 0  9991
2 37855 101.7229  15.0694 0177874 144.2625 217.0645 15.03999212339736
HORYU 2                 
1 38340U 12025D   18025.59897188  .00000196  00000-0  36906-4 0  9993
2 38340  98.3746  42.3619 0010596 308.5028  51.5229 14.75489011295672
STRAND-1                
1 39090U 13009E   18025.52108841  .00000010  00000-0  18969-4 0  9997
2 39090  98.5332 233.6419 0009335   7.8121 352.3208 14.35007880257340
BRITE-AUSTRIA           
1 39091U 13009F   18025.52667501  .00000001  00000-0  15725-4 0  9998
2 39091  98.5299 232.9658 0010758  14.4945 345.6547 14.35057796257374
UNIBRITE                
1 39092U 13009G   18025.54547901 -.00000007  00000-0  12985-4 0  9994
2 39092  98.5310 232.6562 0009525   8.8216 351.3134 14.34931875257350
AIST-2                  
1 39133U 13015D   18025.86730118  .00000070  00000-0  17590-4 0  9992
2 39133  64.8742 301.7238 0033815 244.8505 114.9106 15.04476433261798
SOMP                    
1 39134U 13015E   18025.32977504  .00001273  00000-0  70153-4 0  9996
2 39134  64.8624 228.8819 0028469 229.4561 130.4086 15.18743106262826
BEESAT-3                
1 39135U 13015F   18025.38480397  .00000780  00000-0  49808-4 0  9997
2 39135  64.8676 240.2363 0030942 252.4914 107.2830 15.16336179262996
BEESAT-2                
1 39136U 13015G   18025.37101780  .00000885  00000-0  55944-4 0  9997
2 39136  64.8683 242.6864 0029841 252.7299 107.0560 15.15820930262554
NEE-01 PEGASUS          
1 39151U 13018B   18025.77059844  .00000134  00000-0  24818-4 0  9997
2 39151  97.9780 120.8572 0018109  53.0922 307.1945 14.79844922256457
CUBEBUG-1 (CAPITAN BETO)
1 39153U 13018D   18025.82490387  .00000183  00000-0  30890-4 0  9997
2 39153  97.9810 121.9231 0017977  50.8956 309.3851 14.80330028256539
ESTCUBE 1               
1 39161U 13021C   18025.69040298  .00000148  00000-0  31525-4 0  9994
2 39161  98.0148 113.6838 0010148 145.6121 214.5739 14.72013152253485
POPACS 1                
1 39268U 13055D   18025.26820626  .00002909  00000-0  83718-4 0  9991
2 39268  81.0047 136.0634 0641577 287.2521  65.9450 14.33035518222503
POPACS 2                
1 39269U 13055E   18025.40547083  .00001835  00000-0  53675-4 0  9997
2 39269  81.0168 154.9920 0694360 336.5109  20.5701 14.21394752222852
POPACS 3                
1 39270U 13055F   18025.42530090  .00001868  00000-0  58183-4 0  9996
2 39270  81.0175 165.5208 0721372   7.9562 353.2343 14.14195857222175
ZACUBE-1 (TSHEPISOSAT)  
1 39417U 13066B   18025.67876829  .00000199  00000-0  31762-4 0  9991
2 39417  97.6041  61.8056 0057734 261.6513  97.8152 14.80864990225706
WNISAT-1                
1 39423U 13066H   18025.85901809  .00000077  00000-0  24302-4 0  9992
2 39423  97.7091   1.0967 0177023 101.8683 260.2433 14.52917419221565
TRITON-1                
1 39427U 13066M   18025.53540416  .00000196  00000-0  39346-4 0  9990
2 39427  97.6370  30.9645 0114064 357.1703   2.8843 14.67602259223462
GOMX 1                  
1 39430U 13066Q   18025.86536980  .00000258  00000-0  55411-4 0  9991
2 39430  97.6824  13.1223 0152935  60.1123 301.5173 14.59011296222405
BRITE-PL                
1 39431U 13066R   18025.45384921  .00000064  00000-0  23542-4 0  9998
2 39431  97.7384 348.8612 0203260 147.5773 213.8102 14.46903467220598
HUMSAT-D                
1 39433U 13066T   18025.70726194  .00000575  00000-0  62093-4 0  9991
2 39433  97.6248  86.9328 0030820 194.3354 165.6994 14.91728483227185
EAGLE 2                 
1 39436U 13066W   18025.85481445  .00067635  00000-0  94374-3 0  9993
2 39436  97.7107 150.5394 0005715 345.8397  14.2696 15.56653469231039
CUBEBUG-2 (LO-74)       
1 39440U 13066AA  18025.60662793  .00000199  00000-0  35098-4 0  9999
2 39440  97.6107  49.2510 0079290 299.0363  60.2920 14.75602622223698
NEE-02 KRYSAOR          
1 39441U 13066AB  18025.60686013  .00000126  00000-0  25269-4 0  9990
2 39441  97.6099  47.6379 0080756 303.5907  55.7612 14.74727484223609
FUNCUBE-1 (AO-73)       
1 39444U 13066AE  18025.61368345  .00000243  00000-0  36691-4 0  9990
2 39444  97.6055  63.0868 0056939 257.6670 101.8166 14.81628214223955
UWE-3                   
1 39446U 13066AG  18025.60275549  .00000184  00000-0  31510-4 0  9993
2 39446  97.6061  55.1383 0068841 280.9092  78.4379 14.78135312223469
BRITE-TORONTO           
1 40020U 14033L   18025.68393968  .00000082  00000-0  22700-4 0  9990
2 40020  97.8048 251.0666 0087137 339.7300  20.0453 14.66463562192695
DUCHIFAT-1              
1 40021U 14033M   18025.71274703  .00000487  00000-0  56207-4 0  9998
2 40021  97.9178 304.1757 0011756 291.2887  68.7075 14.90179466195739
FLOCK 1C-10             
1 40023U 14033P   18025.71199927  .00000558  00000-0  65107-4 0  9992
2 40023  97.9198 302.9616 0011914 300.6775  59.3348 14.89106680195612
NANOSATC-BR1            
1 40024U 14033Q   18025.75137107  .00000280  00000-0  35391-4 0  9993
2 40024  97.9124 302.7282 0011013 293.2138  66.7919 14.89461323195679
QB50P1                  
1 40025U 14033R   18025.71833468  .00000263  00000-0  34222-4 0  9996
2 40025  97.9093 301.3851 0011305 297.2592  62.7472 14.88623266195590
FLOCK 1C-7              
1 40026U 14033S   18025.28288801  .00000569  00000-0  65116-4 0  9999
2 40026  97.9221 303.5635 0010521 299.8183  60.1972 14.89850554195614
FLOCK 1C-1              
1 40027U 14033T   18025.33480992  .00000943  00000-0  10577-3 0  9997
2 40027  97.9202 302.8792 0011933 298.5828  61.4140 14.89169193195578
POPSAT-HIP-1            
1 40028U 14033U   18025.83724485  .00000103  00000-0  17196-4 0  9994
2 40028  97.9124 301.8467 0012582 295.8779  64.1133 14.88482519195599
FLOCK 1C-2              
1 40029U 14033V   18025.36008228 -.00000149  00000-0 -97285-5 0  9993
2 40029  97.9223 302.7424 0012938 295.3020  64.6863 14.89206886195577
FLOCK 1C-4              
1 40031U 14033X   18025.33289908  .00000853  00000-0  96496-4 0  9991
2 40031  97.9206 302.6524 0013464 292.0491  67.9276 14.89036188195550
QB50P2                  
1 40032U 14033Y   18025.29454626  .00000260  00000-0  34295-4 0  9999
2 40032  97.9055 299.8375 0010641 293.8768  66.1333 14.88172906195478
FLOCK 1C-11             
1 40033U 14033Z   18025.30884062 -.00000149  00000-0 -93753-5 0  9996
2 40033  97.9243 304.5857 0010801 285.1489  74.8520 14.90415621195672
ANTELSAT                
1 40034U 14033AA  18025.56964539  .00000189  00000-0  35945-4 0  9993
2 40034  97.8311 267.2398 0057788 298.1229  61.4147 14.73852114193144
FLOCK 1C-9              
1 40035U 14033AB  18025.74467603  .00000670  00000-0  76754-4 0  9992
2 40035  97.9237 303.5943 0010818 285.7967  74.1976 14.89244128195620
FLOCK 1C-6              
1 40036U 14033AC  18025.34675537  .00000592  00000-0  68310-4 0  9998
2 40036  97.9244 303.4694 0010931 288.4513  71.5492 14.89349673195584
PERSEUS-M2              
1 40037U 14033AD  18025.56439330  .00000059  00000-0  13036-4 0  9995
2 40037  97.9057 298.0719 0013210 300.3168  59.6740 14.86317332194842
FLOCK 1C-5              
1 40038U 14033AE  18025.55890519  .00000137  00000-0  20475-4 0  9997
2 40038  97.9243 303.4368 0013257 286.1070  73.8686 14.89316936195610
PERSEUS-M1              
1 40039U 14033AF  18025.62046166  .00000066  00000-0  13839-4 0  9994
2 40039  97.9059 297.5734 0013015 296.1928  63.7948 14.85939821194798
FLOCK 1C-8              
1 40040U 14033AG  18025.72817181  .00000801  00000-0  86217-4 0  9997
2 40040  97.9272 306.5000 0011583 269.2537  90.7415 14.91277387195798
